INTELSAT 23 (IS-23)     
1 38867U 12057A   26198.89901779 -.00000294  00000+0  00000+0 0  9997
2 38867   0.0132 328.6176 0000692 281.6842 316.0074  1.00262942 50261
FM-6                    
1 39360U 13058A   26198.88647631 -.00000024  00000+0  00000+0 0  9992
2 39360   0.0113  33.8260 0001627 149.2195 315.4236  1.00271283 46386
INTELSAT 30 (IS-30)     
1 40271U 14062A   26198.81925441 -.00000160  00000+0  00000+0 0  9993
2 40271   0.0182  55.4118 0001428 329.4971 110.6015  1.00273419  7100
DIRECTV 14              
1 40333U 14078B   26198.88976965 -.00000134  00000+0  00000+0 0  9994
2 40333   0.0107  45.5381 0000337 324.1187 147.1138  1.00270109 42357
DIRECTV 15              
1 40663U 15026A   26198.60393409 -.00000112  00000+0  00000+0 0  9996
2 40663   0.0230  78.6192 0000159 321.3364   9.9880  1.00272685 40768
SKY MEXICO-1            
1 40664U 15026B   26198.39489149 -.00000244  00000+0  00000+0 0  9996
2 40664   0.0130  67.3239 0002331  65.4002 225.8447  1.00273000 40753
INTELSAT 34 (IS-34)     
1 40874U 15039A   26198.56598794 -.00000295  00000+0  00000+0 0  9995
2 40874   0.0102  26.4718 0000437 330.4627  86.7015  1.00271968 39930
INTELSAT 31 (IS-31)     
1 41581U 16035A   26198.36919520 -.00000160  00000+0  00000+0 0  9991
2 41581   0.0060  13.9840 0001057 283.2475  35.8039  1.00270166 36983
INTELSAT 36 (IS-36)     
1 41747U 16053A   26198.42401163 -.00000034  00000+0  00000+0 0  9991
2 41747   0.0105  39.2752 0002294 305.0932 171.9939  1.00271735 36260
INTELSAT 32E (IS-32E)   
1 41945U 17007B   26198.75839389  .00000000  00000+0  00000+0 0  9994
2 41945   0.0205  56.6249 0000522 323.0836 145.7108  1.00269679 34539
INTELSAT 35E (IS-35E)   
1 42818U 17041A   26198.90265780 -.00000247  00000+0  00000+0 0  9991
2 42818   0.0185  55.1689 0001908  63.1735 107.8214  1.00272785 33120
INTELSAT 37E (IS-37E)   
1 42950U 17059A   26198.90595115 -.00000149  00000+0  00000+0 0  9996
2 42950   0.0136  78.2555 0002626  41.9225 123.6673  1.00272868 32370
AZERSPACE 2 (IS-38)     
1 43632U 18074A   26198.49068736  .00000000  00000+0  00000+0 0  9995
2 43632   0.0225  57.4459 0001457  53.1326  46.4993  1.00270637 28753
HORIZONS-3E             
1 43633U 18074B   26198.60947359 -.00000040  00000+0  00000+0 0  9991
2 43633   0.0397 248.7471 0000745  38.5602  36.5111  1.00271240 28647
AT&T T-16               
1 44333U 19034A   26198.46182722 -.00000125  00000+0  00000+0 0  9999
2 44333   0.0143  73.6211 0000663 281.6891   5.3659  1.00274290 25939
INTELSAT 39 (IS-39)     
1 44476U 19049B   26198.95649451  .00000000  00000+0  00000+0 0  9995
2 44476   0.0207  56.3117 0000909 294.9928 350.7547  1.00269746 25430
GALAXY 30 (G-30)        
1 46114U 20056C   26198.59960073  .00000000  00000+0  00000+0 0  9992
2 46114   0.0225  59.8270 0002254  58.8872 267.5676  1.00270960 21590
GALAXY 33 (G-33)        
1 54026U 22128A   26198.74054047  .00000070  00000+0  00000+0 0  9994
2 54026   0.0160  61.8846 0001841  51.7210 315.5257  1.00269767 14044
GALAXY 34 (G-34)        
1 54027U 22128B   26198.70998764  .00000050  00000+0  00000+0 0  9992
2 54027   0.0094  64.4505 0001511  52.4540 305.2046  1.00271292 14217
GALAXY 31 (G-31)        
1 54243U 22153A   26198.88543631  .00000004  00000+0  00000+0 0  9997
2 54243   0.0190  93.6582 0001092  25.4002  14.3746  1.00272045  7449
GALAXY 32 (G-32)        
1 54244U 22153B   26198.82020775 -.00000183  00000+0  00000+0 0  9990
2 54244   0.0116  50.5444 0001388 355.9350  93.4244  1.00272394 13458
GALAXY 35 (G-35)        
1 54741U 22170A   26198.81977442 -.00000171  00000+0  00000+0 0  9999
2 54741   0.0137  91.0268 0001866  25.2385  21.3699  1.00272222 13200
GALAXY 36 (G-36)        
1 54742U 22170B   26198.82046775 -.00000194  00000+0  00000+0 0  9992
2 54742   0.0170 141.2540 0002614 317.2384  43.5043  1.00271807 13087
GALAXY 37 (G-37)        
1 57493U 23112A   26198.59916740  .00000000  00000+0  00000+0 0  9992
2 57493   0.0198  55.8349 0002018  59.5726 268.7145  1.00269990 10849
